OBJECT_NAME,OBJECT_ID,EPOCH,MEAN_MOTION,ECCENTRICITY,INCLINATION,RA_OF_ASC_NODE,ARG_OF_PERICENTER,MEAN_ANOMALY,EPHEMERIS_TYPE,CLASSIFICATION_TYPE,NORAD_CAT_ID,ELEMENT_SET_NO,REV_AT_EPOCH,BSTAR,MEAN_MOTION_DOT,MEAN_MOTION_DDOT
ONEWEB-0313,2021-075AA,2026-07-14T23:37:37.331040,13.17650133,.0001841,87.9142,0.3476,89.0129,271.1214,0,U,49099,999,23725,.30162E-4,.25E-6,0
ONEWEB-0314,2021-075AB,2026-07-15T00:38:34.046016,13.17650541,.0002075,87.9153,0.3155,82.7748,277.3619,0,U,49100,999,23723,-.18634E-3,-.59E-6,0
ONEWEB-0315,2021-075AC,2026-07-14T23:00:43.642080,13.12441234,.0001584,87.8970,345.1232,85.4054,274.7255,0,U,49101,999,23881,.45957E-3,.178E-5,0
ONEWEB-0316,2021-075AD,2026-07-14T20:29:34.653120,13.18686653,.0001948,87.9192,329.9537,99.5131,260.6221,0,U,49102,999,24085,.57156E-4,.35E-6,0
ONEWEB-0317,2021-075AE,2026-07-14T23:05:36.355776,13.12441605,.0002445,87.8965,345.1461,107.6514,252.4882,0,U,49103,999,23883,-.1298E-3,-.34E-6,0
ONEWEB-0318,2021-075AF,2026-07-14T20:24:31.483296,13.18686664,.00017987,87.9195,329.9567,92.5049,267.6289,0,U,49104,999,24081,-.4805484E-5,.11E-6,0
ONEWEB-0319,2021-075AG,2026-07-14T23:11:05.708256,13.17647648,.0001537,87.9144,0.3415,78.5556,281.5748,0,U,49105,999,23726,.40356E-4,.29E-6,0
ONEWEB-0323,2021-075AH,2026-07-14T22:38:46.678848,13.12442537,.0001666,87.8971,345.1315,77.9757,282.1559,0,U,49106,999,23819,.117E-2,.434E-5,0
ONEWEB-0329,2021-075AJ,2026-07-14T23:23:13.885728,13.17650333,.0001915,87.9145,0.3403,88.4236,271.7115,0,U,49107,999,23724,-.47813E-4,-.6E-7,0
ONEWEB-0330,2021-075AK,2026-07-14T23:28:16.957056,13.17646891,.0002016,87.9146,0.3509,90.0574,270.0788,0,U,49108,999,23728,-.53314E-4,-.8E-7,0
ONEWEB-0292,2021-083A,2026-07-14T21:27:38.491200,13.13470567,.000181,87.8979,314.7236,97.2487,262.8848,0,U,49186,999,23456,-.63924E-3,-.221E-5,0
ONEWEB-0303,2021-083B,2026-07-14T22:08:54.888864,13.18684385,.0001815,87.9194,329.9404,93.2025,266.9315,0,U,49187,999,23363,-.15266E-3,-.47E-6,0
ONEWEB-0306,2021-083C,2026-07-14T21:54:21.690720,13.18684452,.0002111,87.9199,329.9318,101.9383,258.1986,0,U,49188,999,23367,-.2011E-3,-.66E-6,0
ONEWEB-0307,2021-083D,2026-07-14T21:19:06.070080,13.13467929,.0001918,87.8979,314.7226,96.5874,263.5473,0,U,49189,999,23456,-.80032E-3,-.279E-5,0
ONEWEB-0320,2021-083E,2026-07-14T22:23:28.780800,13.18687477,.0001948,87.9185,329.9431,98.6054,261.5299,0,U,49190,999,23363,-.78583E-4,-.18E-6,0
ONEWEB-0321,2021-083F,2026-07-15T03:43:37.691040,13.20773279,.0002143,87.9185,268.8617,104.3143,255.8228,0,U,49191,999,24052,.26468E-3,.121E-5,0
ONEWEB-0322,2021-083G,2026-07-14T21:13:01.723008,13.13469649,.0002047,87.8977,314.7232,113.2558,246.8786,0,U,49192,999,23455,-.61942E-3,-.213E-5,0
ONEWEB-0324,2021-083H,2026-07-14T21:44:39.276096,13.18686637,.0002076,87.9199,329.9386,95.5947,264.5422,0,U,49193,999,23365,-.17831E-3,-.57E-6,0
ONEWEB-0325,2021-083J,2026-07-14T21:49:29.860032,13.18687313,.0001842,87.9189,329.9434,100.1652,259.9688,0,U,49194,999,23366,-.27474E-3,-.95E-6,0
ONEWEB-0326,2021-083K,2026-07-14T22:11:34.543104,13.18686577,.0001699,87.9196,329.9406,92.8841,267.2485,0,U,49195,999,23365,-.18588E-3,-.6E-6,0
ONEWEB-0327,2021-083L,2026-07-14T20:21:54.579168,13.18686546,.00014917,87.9187,329.9574,92.8129,267.3174,0,U,49196,999,23366,.29658446E-4,.25E-6,0
ONEWEB-0328,2021-083M,2026-07-14T20:58:24.243744,13.13469198,.0002044,87.8988,314.7010,97.5991,262.5370,0,U,49197,999,23453,.2952E-3,.121E-5,0
ONEWEB-0331,2021-083N,2026-07-14T22:01:38.638848,13.18684413,.0001725,87.9198,329.9358,88.0376,272.0954,0,U,49198,999,23366,-.11818E-3,-.34E-6,0
ONEWEB-0333,2021-083P,2026-07-14T20:51:05.487264,13.13469318,.000186,87.8979,314.7257,100.3841,259.7498,0,U,49199,999,23454,.64479E-3,.248E-5,0
ONEWEB-0334,2021-083Q,2026-07-15T04:04:13.058112,13.20769257,.0002481,87.9185,268.8696,118.0674,242.0710,0,U,49200,999,24048,.92026E-4,.5E-6,0
ONEWEB-0335,2021-083R,2026-07-14T20:43:46.513920,13.13468392,.0001811,87.8972,314.7244,94.3135,265.8201,0,U,49201,999,23455,.11042E-2,.416E-5,0
ONEWEB-0336,2021-083S,2026-07-14T20:02:19.563360,13.13469462,.00018495,87.8974,314.7249,90.7612,269.3729,0,U,49202,999,23454,-.39591178E-3,-.132E-5,0
ONEWEB-0337,2021-083T,2026-07-14T18:27:04.593888,13.13469484,.00020698,87.8974,314.7436,95.2145,264.9221,0,U,49203,999,23453,.39845461E-3,.158E-5,0
ONEWEB-0338,2021-083U,2026-07-15T03:31:29.654400,13.20771278,.0002144,87.9183,268.8750,107.4226,252.7142,0,U,49204,999,24050,.18383E-3,.88E-6,0
ONEWEB-0339,2021-083V,2026-07-14T20:29:09.096000,13.13469126,.0002142,87.8974,314.7207,106.5363,253.6001,0,U,49205,999,23452,.71367E-3,.273E-5,0
