ONEWEB-0313             
1 49099U 21075AA  26195.98445985  .00000025  00000+0  30162-4 0  9993
2 49099  87.9142   0.3476 0001841  89.0129 271.1214 13.17650133237254
ONEWEB-0314             
1 49100U 21075AB  26196.02678294 -.00000059  00000+0 -18634-3 0  9991
2 49100  87.9153   0.3155 0002075  82.7748 277.3619 13.17650541237238
ONEWEB-0315             
1 49101U 21075AC  26195.95883845  .00000178  00000+0  45957-3 0  9991
2 49101  87.8970 345.1232 0001584  85.4054 274.7255 13.12441234238819
ONEWEB-0316             
1 49102U 21075AD  26195.85387330  .00000035  00000+0  57156-4 0  9996
2 49102  87.9192 329.9537 0001948  99.5131 260.6221 13.18686653240857
ONEWEB-0317             
1 49103U 21075AE  26195.96222634 -.00000034  00000+0 -12980-3 0  9990
2 49103  87.8965 345.1461 0002445 107.6514 252.4882 13.12441605238837
ONEWEB-0318             
1 49104U 21075AF  26195.85036439  .00000011  00000+0 -48055-5 0  9993
2 49104  87.9195 329.9567 0001798  92.5049 267.6289 13.18686664240818
ONEWEB-0319             
1 49105U 21075AG  26195.96603829  .00000029  00000+0  40356-4 0  9992
2 49105  87.9144   0.3415 0001537  78.5556 281.5748 13.17647648237261
ONEWEB-0323             
1 49106U 21075AH  26195.94359582  .00000434  00000+0  11700-2 0  9994
2 49106  87.8971 345.1315 0001666  77.9757 282.1559 13.12442537238192
ONEWEB-0329             
1 49107U 21075AJ  26195.97446627 -.00000006  00000+0 -47813-4 0  9998
2 49107  87.9145   0.3403 0001915  88.4236 271.7115 13.17650333237248
ONEWEB-0330             
1 49108U 21075AK  26195.97797404 -.00000008  00000+0 -53314-4 0  9996
2 49108  87.9146   0.3509 0002016  90.0574 270.0788 13.17646891237280
ONEWEB-0292             
1 49186U 21083A   26195.89419550 -.00000221  00000+0 -63924-3 0  9999
2 49186  87.8979 314.7236 0001810  97.2487 262.8848 13.13470567234566
ONEWEB-0303             
1 49187U 21083B   26195.92285751 -.00000047  00000+0 -15266-3 0  9990
2 49187  87.9194 329.9404 0001815  93.2025 266.9315 13.18684385233632
ONEWEB-0306             
1 49188U 21083C   26195.91275105 -.00000066  00000+0 -20110-3 0  9997
2 49188  87.9199 329.9318 0002111 101.9383 258.1986 13.18684452233672
ONEWEB-0307             
1 49189U 21083D   26195.88826470 -.00000279  00000+0 -80032-3 0  9996
2 49189  87.8979 314.7226 0001918  96.5874 263.5473 13.13467929234569
ONEWEB-0320             
1 49190U 21083E   26195.93297200 -.00000018  00000+0 -78583-4 0  9997
2 49190  87.9185 329.9431 0001948  98.6054 261.5299 13.18687477233631
ONEWEB-0321             
1 49191U 21083F   26196.15529735  .00000121  00000+0  26468-3 0  9991
2 49191  87.9185 268.8617 0002143 104.3143 255.8228 13.20773279240524
ONEWEB-0322             
1 49192U 21083G   26195.88404772 -.00000213  00000+0 -61942-3 0  9994
2 49192  87.8977 314.7232 0002047 113.2558 246.8786 13.13469649234559
ONEWEB-0324             
1 49193U 21083H   26195.90601014 -.00000057  00000+0 -17831-3 0  9990
2 49193  87.9199 329.9386 0002076  95.5947 264.5422 13.18686637233658
ONEWEB-0325             
1 49194U 21083J   26195.90937338 -.00000095  00000+0 -27474-3 0  9998
2 49194  87.9189 329.9434 0001842 100.1652 259.9688 13.18687313233663
ONEWEB-0326             
1 49195U 21083K   26195.92470536 -.00000060  00000+0 -18588-3 0  9991
2 49195  87.9196 329.9406 0001699  92.8841 267.2485 13.18686577233655
ONEWEB-0327             
1 49196U 21083L   26195.84854837  .00000025  00000+0  29658-4 0  9993
2 49196  87.9187 329.9574 0001491  92.8129 267.3174 13.18686546233664
ONEWEB-0328             
1 49197U 21083M   26195.87389171  .00000121  00000+0  29520-3 0  9995
2 49197  87.8988 314.7010 0002044  97.5991 262.5370 13.13469198234533
ONEWEB-0331             
1 49198U 21083N   26195.91780832 -.00000034  00000+0 -11818-3 0  9996
2 49198  87.9198 329.9358 0001725  88.0376 272.0954 13.18684413233669
ONEWEB-0333             
1 49199U 21083P   26195.86881351  .00000248  00000+0  64479-3 0  9995
2 49199  87.8979 314.7257 0001860 100.3841 259.7498 13.13469318234544
ONEWEB-0334             
1 49200U 21083Q   26196.16959558  .00000050  00000+0  92026-4 0  9998
2 49200  87.9185 268.8696 0002481 118.0674 242.0710 13.20769257240488
ONEWEB-0335             
1 49201U 21083R   26195.86373280  .00000416  00000+0  11042-2 0  9990
2 49201  87.8972 314.7244 0001811  94.3135 265.8201 13.13468392234553
ONEWEB-0336             
1 49202U 21083S   26195.83494865 -.00000132  00000+0 -39591-3 0  9998
2 49202  87.8974 314.7249 0001849  90.7612 269.3729 13.13469462234544
ONEWEB-0337             
1 49203U 21083T   26195.76880317  .00000158  00000+0  39845-3 0  9990
2 49203  87.8974 314.7436 0002069  95.2145 264.9221 13.13469484234530
ONEWEB-0338             
1 49204U 21083U   26196.14687100  .00000088  00000+0  18383-3 0  9995
2 49204  87.9183 268.8750 0002144 107.4226 252.7142 13.20771278240508
ONEWEB-0339             
1 49205U 21083V   26195.85357750  .00000273  00000+0  71367-3 0  9995
2 49205  87.8974 314.7207 0002142 106.5363 253.6001 13.13469126234521
